[{"OBJECT_NAME":"STARLINK-3751","OBJECT_ID":"2022-041AE","EPOCH":"2026-03-09T07:34:11.395488","MEAN_MOTION":15.08830974,"ECCENTRICITY":0.00011576,"INCLINATION":53.2163,"RA_OF_ASC_NODE":100.8007,"ARG_OF_PERICENTER":87.7054,"MEAN_ANOMALY":272.4071,"EPHEMERIS_TYPE":0,"CLASSIFICATION_TYPE":"U","NORAD_CAT_ID":52289,"ELEMENT_SET_NO":999,"REV_AT_EPOCH":21444,"BSTAR":4.601013e-5,"MEAN_MOTION_DOT":4.44e-6,"MEAN_MOTION_DDOT":0},{"OBJECT_NAME":"CZ-6A DEB","OBJECT_ID":"2022-151BX","EPOCH":"2026-03-09T18:04:18.424992","MEAN_MOTION":15.16566225,"ECCENTRICITY":0.00404449,"INCLINATION":98.6231,"RA_OF_ASC_NODE":169.9483,"ARG_OF_PERICENTER":104.1368,"MEAN_ANOMALY":256.4361,"EPHEMERIS_TYPE":0,"CLASSIFICATION_TYPE":"U","NORAD_CAT_ID":54328,"ELEMENT_SET_NO":999,"REV_AT_EPOCH":10563,"BSTAR":0.0050960293,"MEAN_MOTION_DOT":0.00102794,"MEAN_MOTION_DDOT":0}]
